CCSDS_OMM_VERS = 2.0
CREATION_DATE  = 
ORIGINATOR     = 

OBJECT_NAME    = STARLINK-37041
OBJECT_ID      = 2026-044D
CENTER_NAME    = EARTH
REF_FRAME      = TEME
TIME_SYSTEM    = UTC
MEAN_ELEMENT_THEORY = SGP/SGP4

EPOCH          = 2026-03-19T20:00:01.999872
MEAN_MOTION    = 15.80895540
ECCENTRICITY   = .00012544
INCLINATION    = 97.2844
RA_OF_ASC_NODE = 39.4661
ARG_OF_PERICENTER = 76.7052
MEAN_ANOMALY   = 18.2824

EPHEMERIS_TYPE = 0
CLASSIFICATION_TYPE = U
NORAD_CAT_ID   = 68104
ELEMENT_SET_NO = 999
REV_AT_EPOCH   = 298
BSTAR          = -.64317064E-3
MEAN_MOTION_DOT = -.122076E-2
MEAN_MOTION_DDOT = 0

CCSDS_OMM_VERS = 2.0
CREATION_DATE  = 
ORIGINATOR     = 

OBJECT_NAME    = STARLINK-37021
OBJECT_ID      = 2026-044E
CENTER_NAME    = EARTH
REF_FRAME      = TEME
TIME_SYSTEM    = UTC
MEAN_ELEMENT_THEORY = SGP/SGP4

EPOCH          = 2026-03-19T20:00:01.999872
MEAN_MOTION    = 15.80991285
ECCENTRICITY   = .00009373
INCLINATION    = 97.2840
RA_OF_ASC_NODE = 39.4670
ARG_OF_PERICENTER = 141.0963
MEAN_ANOMALY   = 318.1071

EPHEMERIS_TYPE = 0
CLASSIFICATION_TYPE = U
NORAD_CAT_ID   = 68105
ELEMENT_SET_NO = 999
REV_AT_EPOCH   = 298
BSTAR          = -.19062316E-2
MEAN_MOTION_DOT = -.353693E-2
MEAN_MOTION_DDOT = 0

CCSDS_OMM_VERS = 2.0
CREATION_DATE  = 
ORIGINATOR     = 

OBJECT_NAME    = STARLINK-37024
OBJECT_ID      = 2026-044F
CENTER_NAME    = EARTH
REF_FRAME      = TEME
TIME_SYSTEM    = UTC
MEAN_ELEMENT_THEORY = SGP/SGP4

EPOCH          = 2026-03-19T20:00:01.999872
MEAN_MOTION    = 15.81135162
ECCENTRICITY   = .00015563
INCLINATION    = 97.2840
RA_OF_ASC_NODE = 39.4688
ARG_OF_PERICENTER = 88.7606
MEAN_ANOMALY   = 14.6476

EPHEMERIS_TYPE = 0
CLASSIFICATION_TYPE = U
NORAD_CAT_ID   = 68106
ELEMENT_SET_NO = 999
REV_AT_EPOCH   = 298
BSTAR          = -.26392766E-2
MEAN_MOTION_DOT = -.485692E-2
MEAN_MOTION_DDOT = 0

CCSDS_OMM_VERS = 2.0
CREATION_DATE  = 
ORIGINATOR     = 

OBJECT_NAME    = STARLINK-37005
OBJECT_ID      = 2026-044G
CENTER_NAME    = EARTH
REF_FRAME      = TEME
TIME_SYSTEM    = UTC
MEAN_ELEMENT_THEORY = SGP/SGP4

EPOCH          = 2026-03-19T20:00:01.999872
MEAN_MOTION    = 15.80840584
ECCENTRICITY   = .00011954
INCLINATION    = 97.2843
RA_OF_ASC_NODE = 39.4638
ARG_OF_PERICENTER = 79.9073
MEAN_ANOMALY   = 10.8314

EPHEMERIS_TYPE = 0
CLASSIFICATION_TYPE = U
NORAD_CAT_ID   = 68107
ELEMENT_SET_NO = 999
REV_AT_EPOCH   = 298
BSTAR          = -.15990739E-3
MEAN_MOTION_DOT = -.30698E-3
MEAN_MOTION_DDOT = 0

CCSDS_OMM_VERS = 2.0
CREATION_DATE  = 
ORIGINATOR     = 

OBJECT_NAME    = STARLINK-37017
OBJECT_ID      = 2026-044H
CENTER_NAME    = EARTH
REF_FRAME      = TEME
TIME_SYSTEM    = UTC
MEAN_ELEMENT_THEORY = SGP/SGP4

EPOCH          = 2026-03-19T20:00:01.999872
MEAN_MOTION    = 15.81209199
ECCENTRICITY   = .00013529
INCLINATION    = 97.2841
RA_OF_ASC_NODE = 39.4713
ARG_OF_PERICENTER = 81.0151
MEAN_ANOMALY   = 26.6250

EPHEMERIS_TYPE = 0
CLASSIFICATION_TYPE = U
NORAD_CAT_ID   = 68108
ELEMENT_SET_NO = 999
REV_AT_EPOCH   = 298
BSTAR          = -.33732256E-2
MEAN_MOTION_DOT = -.613857E-2
MEAN_MOTION_DDOT = 0

CCSDS_OMM_VERS = 2.0
CREATION_DATE  = 
ORIGINATOR     = 

OBJECT_NAME    = STARLINK-36833
OBJECT_ID      = 2026-044J
CENTER_NAME    = EARTH
REF_FRAME      = TEME
TIME_SYSTEM    = UTC
MEAN_ELEMENT_THEORY = SGP/SGP4

EPOCH          = 2026-03-19T20:00:01.999872
MEAN_MOTION    = 15.81495195
ECCENTRICITY   = .00014515
INCLINATION    = 97.2833
RA_OF_ASC_NODE = 39.4739
ARG_OF_PERICENTER = 92.8328
MEAN_ANOMALY   = 23.1849

EPHEMERIS_TYPE = 0
CLASSIFICATION_TYPE = U
NORAD_CAT_ID   = 68109
ELEMENT_SET_NO = 999
REV_AT_EPOCH   = 303
BSTAR          = -.50586372E-2
MEAN_MOTION_DOT = -.902469E-2
MEAN_MOTION_DDOT = 0

CCSDS_OMM_VERS = 2.0
CREATION_DATE  = 
ORIGINATOR     = 

OBJECT_NAME    = STARLINK-36830
OBJECT_ID      = 2026-044K
CENTER_NAME    = EARTH
REF_FRAME      = TEME
TIME_SYSTEM    = UTC
MEAN_ELEMENT_THEORY = SGP/SGP4

EPOCH          = 2026-03-19T20:00:01.999872
MEAN_MOTION    = 15.81299599
ECCENTRICITY   = .00009279
INCLINATION    = 97.2838
RA_OF_ASC_NODE = 39.4723
ARG_OF_PERICENTER = 108.2486
MEAN_ANOMALY   = 3.6152

EPHEMERIS_TYPE = 0
CLASSIFICATION_TYPE = U
NORAD_CAT_ID   = 68110
ELEMENT_SET_NO = 999
REV_AT_EPOCH   = 303
BSTAR          = -.37716864E-2
MEAN_MOTION_DOT = -.68369E-2
MEAN_MOTION_DDOT = 0

CCSDS_OMM_VERS = 2.0
CREATION_DATE  = 
ORIGINATOR     = 

OBJECT_NAME    = STARLINK-36791
OBJECT_ID      = 2026-044L
CENTER_NAME    = EARTH
REF_FRAME      = TEME
TIME_SYSTEM    = UTC
MEAN_ELEMENT_THEORY = SGP/SGP4

EPOCH          = 2026-03-19T20:00:01.999872
MEAN_MOTION    = 15.81628492
ECCENTRICITY   = .00013874
INCLINATION    = 97.2835
RA_OF_ASC_NODE = 39.4763
ARG_OF_PERICENTER = 100.6217
MEAN_ANOMALY   = 19.5849

EPHEMERIS_TYPE = 0
CLASSIFICATION_TYPE = U
NORAD_CAT_ID   = 68111
ELEMENT_SET_NO = 999
REV_AT_EPOCH   = 298
BSTAR          = -.60985777E-2
MEAN_MOTION_DOT = -.1072745E-1
MEAN_MOTION_DDOT = 0

CCSDS_OMM_VERS = 2.0
CREATION_DATE  = 
ORIGINATOR     = 

OBJECT_NAME    = STARLINK-36893
OBJECT_ID      = 2026-044M
CENTER_NAME    = EARTH
REF_FRAME      = TEME
TIME_SYSTEM    = UTC
MEAN_ELEMENT_THEORY = SGP/SGP4

EPOCH          = 2026-03-19T20:00:01.999872
MEAN_MOTION    = 15.81810511
ECCENTRICITY   = .00013807
INCLINATION    = 97.2833
RA_OF_ASC_NODE = 39.4774
ARG_OF_PERICENTER = 64.0865
MEAN_ANOMALY   = 60.2664

EPHEMERIS_TYPE = 0
CLASSIFICATION_TYPE = U
NORAD_CAT_ID   = 68112
ELEMENT_SET_NO = 999
REV_AT_EPOCH   = 303
BSTAR          = -.7140956E-2
MEAN_MOTION_DOT = -.1266253E-1
MEAN_MOTION_DDOT = 0

CCSDS_OMM_VERS = 2.0
CREATION_DATE  = 
ORIGINATOR     = 

OBJECT_NAME    = STARLINK-36937
OBJECT_ID      = 2026-044N
CENTER_NAME    = EARTH
REF_FRAME      = TEME
TIME_SYSTEM    = UTC
MEAN_ELEMENT_THEORY = SGP/SGP4

EPOCH          = 2026-03-19T20:00:01.999872
MEAN_MOTION    = 15.82120733
ECCENTRICITY   = .00013381
INCLINATION    = 97.2832
RA_OF_ASC_NODE = 39.4811
ARG_OF_PERICENTER = 92.6387
MEAN_ANOMALY   = 40.0083

EPHEMERIS_TYPE = 0
CLASSIFICATION_TYPE = U
NORAD_CAT_ID   = 68113
ELEMENT_SET_NO = 999
REV_AT_EPOCH   = 298
BSTAR          = -.87063277E-2
MEAN_MOTION_DOT = -.1557033E-1
MEAN_MOTION_DDOT = 0

CCSDS_OMM_VERS = 2.0
CREATION_DATE  = 
ORIGINATOR     = 

OBJECT_NAME    = STARLINK-36229
OBJECT_ID      = 2026-044P
CENTER_NAME    = EARTH
REF_FRAME      = TEME
TIME_SYSTEM    = UTC
MEAN_ELEMENT_THEORY = SGP/SGP4

EPOCH          = 2026-03-19T20:00:01.999872
MEAN_MOTION    = 15.81938589
ECCENTRICITY   = .00013087
INCLINATION    = 97.2827
RA_OF_ASC_NODE = 39.4782
ARG_OF_PERICENTER = 86.2520
MEAN_ANOMALY   = 42.2735

EPHEMERIS_TYPE = 0
CLASSIFICATION_TYPE = U
NORAD_CAT_ID   = 68114
ELEMENT_SET_NO = 999
REV_AT_EPOCH   = 303
BSTAR          = -.77752796E-2
MEAN_MOTION_DOT = -.1371667E-1
MEAN_MOTION_DDOT = 0

CCSDS_OMM_VERS = 2.0
CREATION_DATE  = 
ORIGINATOR     = 

OBJECT_NAME    = STARLINK-36392
OBJECT_ID      = 2026-044Q
CENTER_NAME    = EARTH
REF_FRAME      = TEME
TIME_SYSTEM    = UTC
MEAN_ELEMENT_THEORY = SGP/SGP4

EPOCH          = 2026-03-19T20:00:01.999872
MEAN_MOTION    = 15.82191171
ECCENTRICITY   = .00016106
INCLINATION    = 97.2829
RA_OF_ASC_NODE = 39.4825
ARG_OF_PERICENTER = 87.1727
MEAN_ANOMALY   = 49.6891

EPHEMERIS_TYPE = 0
CLASSIFICATION_TYPE = U
NORAD_CAT_ID   = 68115
ELEMENT_SET_NO = 999
REV_AT_EPOCH   = 303
BSTAR          = -.90214696E-2
MEAN_MOTION_DOT = -.1611133E-1
MEAN_MOTION_DDOT = 0

