STARLINK-37041          
1 68104U 26044D   26078.83335648 -.00122076  00000+0 -64317-3 0  9991
2 68104  97.2844  39.4661 0001254  76.7052  18.2824 15.80895540  2982
STARLINK-37021          
1 68105U 26044E   26078.83335648 -.00353693  00000+0 -19062-2 0  9999
2 68105  97.2840  39.4670 0000937 141.0963 318.1071 15.80991285  2982
STARLINK-37024          
1 68106U 26044F   26078.83335648 -.00485692  00000+0 -26393-2 0  9990
2 68106  97.2840  39.4688 0001556  88.7606  14.6476 15.81135162  2983
STARLINK-37005          
1 68107U 26044G   26078.83335648 -.00030698  00000+0 -15991-3 0  9996
2 68107  97.2843  39.4638 0001195  79.9073  10.8314 15.80840584  2980
STARLINK-37017          
1 68108U 26044H   26078.83335648 -.00613857  00000+0 -33732-2 0  9993
2 68108  97.2841  39.4713 0001352  81.0151  26.6250 15.81209199  2985
STARLINK-36833          
1 68109U 26044J   26078.83335648 -.00902469  00000+0 -50586-2 0  9990
2 68109  97.2833  39.4739 0001451  92.8328  23.1849 15.81495195  3037
STARLINK-36830          
1 68110U 26044K   26078.83335648 -.00683690  00000+0 -37717-2 0  9995
2 68110  97.2838  39.4723 0000927 108.2486   3.6152 15.81299599  3031
STARLINK-36791          
1 68111U 26044L   26078.83335648 -.01072745  00000+0 -60986-2 0  9994
2 68111  97.2835  39.4763 0001387 100.6217  19.5849 15.81628492  2982
STARLINK-36893          
1 68112U 26044M   26078.83335648 -.01266253  00000+0 -71410-2 0  9998
2 68112  97.2833  39.4774 0001380  64.0865  60.2664 15.81810511  3038
STARLINK-36937          
1 68113U 26044N   26078.83335648 -.01557033  00000+0 -87063-2 0  9999
2 68113  97.2832  39.4811 0001338  92.6387  40.0083 15.82120733  2984
STARLINK-36229          
1 68114U 26044P   26078.83335648 -.01371667  00000+0 -77753-2 0  9992
2 68114  97.2827  39.4782 0001308  86.2520  42.2735 15.81938589  3031
STARLINK-36392          
1 68115U 26044Q   26078.83335648 -.01611133  00000+0 -90215-2 0  9996
2 68115  97.2829  39.4825 0001610  87.1727  49.6891 15.82191171  3030
